#aV2014 10 13  0  0  0.00000000     288 DD+AD WGS84 FIT  NGA
## 1814  86400.00000000   300.00000000 56943 0.0000000000000
+   31     1  2  4  5  6  7  8  9 10 11 12 13 14 15 16 17 18
+         19 20 21 22 23 24 25 26 27 28 29 30 31 32  0  0  0
+          0  0  0  0  0  0  0  0  0  0  0  0  0  0  0  0  0
+          0  0  0  0  0  0  0  0  0  0  0  0  0  0  0  0  0
+          0  0  0  0  0  0  0  0  0  0  0  0  0  0  0  0  0
++         2  2  2  2  2  2  2  2  2  2  2  2  2  2  2  2  2
++         2  2  2  2  2  2  2  2  2  2  2  2  2  2  0  0  0
++         0  0  0  0  0  0  0  0  0  0  0  0  0  0  0  0  0
++         0  0  0  0  0  0  0  0  0  0  0  0  0  0  0  0  0
++         0  0  0  0  0  0  0  0  0  0  0  0  0  0  0  0  0
%c cc cc ccc ccc cccc cccc cccc cccc ccccc ccccc ccccc ccccc
%c cc cc ccc ccc cccc cccc cccc cccc ccccc ccccc ccccc ccccc
%f  0.0000000  0.000000000  0.00000000000  0.000000000000000
%f  0.0000000  0.000000000  0.00000000000  0.000000000000000
%i    0    0    0    0      0      0      0      0         0
%i    0    0    0    0      0      0      0      0         0
/*      NGA, ST. LOUIS,MO.                                  
/*   EPHEMERIS COMPUTED FROM  1 DAYS OF DATA                
/*   EPOCHA SMOOTHER                                       
/* CCCCCCCCCCCCCCCCCCCCCCCCCCCCCCCCCCCCCCCCCCCCCCCCCCCCCCCCC
*  2014 10 13  0 50  0.00000000
P  1 -13427.708408  20196.380449  10593.568489     22.407338                    
V  1   1221.157175 -13768.310983  27821.851967      0.004442                    
P  2  14990.195471   4037.498615 -21238.443124    523.828820                    
V  2  -6534.737880  27011.879347     37.710386      0.021942                    
P  4 -13099.794229  20429.569293  10122.495733     -1.540625                    
V  4    183.576040 -13888.610787  27642.273949     -0.003792                    
P  5  25461.651324   -862.667039  -7869.081543   -330.069673                    
V  5  -8843.072086   5303.909143 -29187.093752      0.040685                    
P  6   8685.427816  17038.256053 -18452.009153     -0.659731                    
V  6  -7629.805385  22164.491031  16873.825283      0.026839                    
P  7  -6471.419681  25498.086541   1813.790428    401.610497                    
V  7  -3279.698230   1312.709418 -32133.059892      0.040070                    
P  8 -13809.922820  21071.002798  -7036.034371     15.875061                    
V  8   1612.087762  -9455.271442 -31237.465879      0.001444                    
P  9    579.777914  19038.667610 -18501.127291     11.125363                    
V  9 -17604.648432 -15655.004771 -16672.233883     -0.047721                    
P 10  14399.962063  11255.530827 -19767.519765   -145.439426                    
V 10 -23295.559329   6887.844464 -12864.891260     -0.014081                    
P 11 -12992.686298  14939.049078  17113.797482   -528.273887                    
V 11  -4258.184751 -22872.970122  16418.636056     -0.028429                    
P 12  23173.218301 -10172.396778  -7760.874503    238.466810                    
V 12   9972.537714   -127.819292  30449.842655      0.026682                    
P 13   5721.798638  22108.017535 -13608.375809    -50.460458                    
V 13 -12041.577150 -12203.435269 -25333.219551     -0.036013                    
P 14 -13980.898868 -22123.578745   5217.270429    125.991730                    
V 14   5850.258399   3298.851494  30917.933668     -0.036473                    
P 15  16028.665214  -5617.947550  20422.141915   -208.277456                    
V 15  18408.254673  18523.539285  -9017.096557     -0.022436                    
P 16 -25556.682587   -348.081958  -7936.244791   -188.541239                    
V 16   9410.758566  -3341.288334 -30028.026847      0.026550                    
P 17  13959.370142  21930.060279   6276.243419   -130.324966                    
V 17  -6697.499054  -4150.466011  30482.358095     -0.025934                    
P 18   2616.737015 -16884.026324  20742.116528    350.991981                    
V 18  24892.767103  -5635.540142  -8227.861767      0.024710                    
P 19 -17951.419421   -708.227878  19541.234480   -483.185869                    
V 19 -15027.177286 -20026.356408 -13970.100768     -0.017848                    
P 20 -18162.113312  15398.016270 -11892.599323    244.519771                    
V 20 -15164.384383   1616.013683  25744.311058      0.043031                    
P 21    990.528892 -25405.436047   7530.016140   -389.057607                    
V 21   5861.644387  -7606.803282 -29387.755264     -0.020591                    
P 22 -11836.888470 -12719.068217  20342.172225    276.527325                    
V 22  24291.784987  -7702.770231   9252.881136      0.034954                    
P 23  -9900.920249  11830.695965 -21472.854521    -59.346243                    
V 23 -19499.174092 -19582.307878  -2208.773719     -0.028522                    
P 24  14570.395459 -17467.009991  13607.337525    -36.725927                    
V 24  -2111.225612  17399.491900  24671.465514     -0.006124                    
P 25  13105.875221 -15408.816324 -17220.878408     18.588719                    
V 25  21398.415125  -4030.686839  20113.632778     -0.013392                    
P 26  19930.587830   8794.861125  14727.170872    -86.474213                    
V 26  10967.246385  16503.944322 -23385.679216     -0.127968                    
P 27 -21486.712233  -9390.852035  12524.229054     21.741000                    
V 27  -9633.624472 -12828.146889 -26043.376117      0.029208                    
P 28   6221.099828  13861.539462  22411.121941    390.846923                    
V 28 -26400.026377   5128.504207   4152.627985      0.026362                    
P 29   1489.348320 -18215.525960 -19259.140047    566.326379                    
V 29  17094.576821  17550.389760 -15219.333748      0.023890                    
P 30    603.968022  23545.217615  12227.630138    -71.782484                    
V 30  -7605.068917  13782.804743 -26214.964654     -0.035875                    
P 31  -9210.982278 -14990.339438 -19641.282696    330.605257                    
V 31   8701.363952 -23821.699673  14296.386648     -0.004843                    
P 32 -25797.875484   4850.435317   -613.509151   -318.998430                    
V 32  -1434.817543  -3520.937545  31812.035188      0.087337                    
EOF
